TIANMU-1 08             
1 57400U 23101B   26066.00237819  .00000346  00000+0  14775-4 0  9993
2 57400  97.2717 118.7901 0006380 134.2174 225.9592 15.29204229146020
STARLINK-31273          
1 58846U 24017W   26068.69114578 -.00000205  00000+0  52105-5 0  9993
2 58846  53.1615 204.5084 0001375  74.9705 285.1448 15.30189946120051
